{"type": "FeatureCollection", "features": [ {"type": "Feature", "properties": {"norad_id": 29750, "name": "FENGYUN 1C DEB", "group": "fengyun-1c-debris", "lat": 57.33233833353097, "lon": 5.916229034111756, "alt_km": 870.8743007891544, "timestamp": "2025-12-16T19:34:24.538274+00:00", "meta": {"OBJECT_NAME": "FENGYUN 1C DEB", "OBJECT_ID": "1999-025AQ", "EPOCH": "2025-12-15T21:44:08.179008", "MEAN_MOTION": 14.09646438, "ECCENTRICITY": 0.00350734, "INCLINATION": 98.7545, "RA_OF_ASC_NODE": 18.937, "ARG_OF_PERICENTER": 292.2607, "MEAN_ANOMALY": 190.9029, "EPHEMERIS_TYPE": 0, "CLASSIFICATION_TYPE": "U", "NORAD_CAT_ID": 29750, "ELEMENT_SET_NO": 999, "REV_AT_EPOCH": 97118, "BSTAR": 0.00027849875, "MEAN_MOTION_DOT": 4.48e-06, "MEAN_MOTION_DDOT": 0}, "tle": {"line1": "1 29750U 99025AQ  25349.90565022  .00000448  00000+0  27850-3 0  9990", "line2": "2 29750  98.7545  18.9370 0035073 292.2607 190.9029 14.09646438971188"}}, "geometry": {"type": "Point", "coordinates": [5.916229034111756, 57.33233833353097]}}, {"type": "Feature", "properties": {"norad_id": 29751, "name": "FENGYUN 1C DEB", "group": "fengyun-1c-debris", "lat": 38.039598852965234, "lon": 11.817470184213152, "alt_km": 808.3160585403757, "timestamp": "2025-12-16T19:34:24.538285+00:00", "meta": {"OBJECT_NAME": "FENGYUN 1C DEB", "OBJECT_ID": "1999-025AR", "EPOCH": "2025-12-15T20:36:13.718304", "MEAN_MOTION": 14.23631593, "ECCENTRICITY": 0.00900132, "INCLINATION": 98.5412, "RA_OF_ASC_NODE": 17.6406, "ARG_OF_PERICENTER": 130.2213, "MEAN_ANOMALY": 47.1743, "EPHEMERIS_TYPE": 0, "CLASSIFICATION_TYPE": "U", "NORAD_CAT_ID": 29751, "ELEMENT_SET_NO": 999, "REV_AT_EPOCH": 98117, "BSTAR": 0.00015524893, "MEAN_MOTION_DOT": 3.27e-06, "MEAN_MOTION_DDOT": 0}, "tle": {"line1": "1 29751U 99025AR  25349.85849211  .00000327  00000+0  15525-3 0  9992", "line2": "2 29751  98.5412  17.6406 0090013 130.2213  47.1743 14.23631593981173"}}, "geometry": {"type": "Point", "coordinates": [11.817470184213152, 38.039598852965234]}}, {"type": "Feature", "properties": {"norad_id": 29754, "name": "FENGYUN 1C DEB", "group": "fengyun-1c-debris", "lat": 70.05839007531024, "lon": -60.89671070233813, "alt_km": 834.2744369307329, "timestamp": "2025-12-16T19:34:24.538295+00:00", "meta": {"OBJECT_NAME": "FENGYUN 1C DEB", "OBJECT_ID": "1999-025AU", "EPOCH": "2025-12-15T19:58:15.598272", "MEAN_MOTION": 14.19163374, "ECCENTRICITY": 0.00361473, "INCLINATION": 98.8842, "RA_OF_ASC_NODE": 92.5798, "ARG_OF_PERICENTER": 230.6197, "MEAN_ANOMALY": 256.0718, "EPHEMERIS_TYPE": 0, "CLASSIFICATION_TYPE": "U", "NORAD_CAT_ID": 29754, "ELEMENT_SET_NO": 999, "REV_AT_EPOCH": 97398, "BSTAR": 0.00078150325, "MEAN_MOTION_DOT": 1.602e-05, "MEAN_MOTION_DDOT": 0}, "tle": {"line1": "1 29754U 99025AU  25349.83212498  .00001602  00000+0  78150-3 0  9994", "line2": "2 29754  98.8842  92.5798 0036147 230.6197 256.0718 14.19163374973981"}}, "geometry": {"type": "Point", "coordinates": [-60.89671070233813, 70.05839007531024]}}, {"type": "Feature", "properties": {"norad_id": 29758, "name": "FENGYUN 1C DEB", "group": "fengyun-1c-debris", "lat": 28.472657579755367, "lon": 101.82344572043706, "alt_km": 754.7085661573828, "timestamp": "2025-12-16T19:34:24.538305+00:00", "meta": {"OBJECT_NAME": "FENGYUN 1C DEB", "OBJECT_ID": "1999-025AY", "EPOCH": "2025-12-15T13:44:26.155680", "MEAN_MOTION": 14.41034518, "ECCENTRICITY": 0.00213772, "INCLINATION": 98.8551, "RA_OF_ASC_NODE": 105.3866, "ARG_OF_PERICENTER": 298.7616, "MEAN_ANOMALY": 125.0692, "EPHEMERIS_TYPE": 0, "CLASSIFICATION_TYPE": "U", "NORAD_CAT_ID": 29758, "ELEMENT_SET_NO": 999, "REV_AT_EPOCH": 97712, "BSTAR": 0.0016438357, "MEAN_MOTION_DOT": 5.258e-05, "MEAN_MOTION_DDOT": 0}, "tle": {"line1": "1 29758U 99025AY  25349.57252495  .00005258  00000+0  16438-2 0  9991", "line2": "2 29758  98.8551 105.3866 0021377 298.7616 125.0692 14.41034518977129"}}, "geometry": {"type": "Point", "coordinates": [101.82344572043706, 28.472657579755367]}}, {"type": "Feature", "properties": {"norad_id": 29760, "name": "FENGYUN 1C DEB", "group": "fengyun-1c-debris", "lat": -8.318115669862127, "lon": -5.841793467945677, "alt_km": 962.6525758547023, "timestamp": "2025-12-16T19:34:24.538316+00:00", "meta": {"OBJECT_NAME": "FENGYUN 1C DEB", "OBJECT_ID": "1999-025BA", "EPOCH": "2025-12-15T23:09:08.522208", "MEAN_MOTION": 14.08290248, "ECCENTRICITY": 0.01309614, "INCLINATION": 98.7623, "RA_OF_ASC_NODE": 352.0396, "ARG_OF_PERICENTER": 164.479, "MEAN_ANOMALY": 196.0455, "EPHEMERIS_TYPE": 0, "CLASSIFICATION_TYPE": "U", "NORAD_CAT_ID": 29760, "ELEMENT_SET_NO": 999, "REV_AT_EPOCH": 97138, "BSTAR": 0.00011654411, "MEAN_MOTION_DOT": 1.73e-06, "MEAN_MOTION_DDOT": 0}, "tle": {"line1": "1 29760U 99025BA  25349.96468197  .00000173  00000+0  11654-3 0  9992", "line2": "2 29760  98.7623 352.0396 0130961 164.4790 196.0455 14.08290248971386"}}, "geometry": {"type": "Point", "coordinates": [-5.841793467945677, -8.318115669862127]}}, {"type": "Feature", "properties": {"norad_id": 29762, "name": "FENGYUN 1C DEB", "group": "fengyun-1c-debris", "lat": 13.232160998105748, "lon": 155.5371385655043, "alt_km": 952.4957475129659, "timestamp": "2025-12-16T19:34:24.538327+00:00", "meta": {"OBJECT_NAME": "FENGYUN 1C DEB", "OBJECT_ID": "1999-025BC", "EPOCH": "2025-12-15T22:48:46.791648", "MEAN_MOTION": 14.22589829, "ECCENTRICITY": 0.02038134, "INCLINATION": 98.5794, "RA_OF_ASC_NODE": 332.66, "ARG_OF_PERICENTER": 326.3114, "MEAN_ANOMALY": 93.5701, "EPHEMERIS_TYPE": 0, "CLASSIFICATION_TYPE": "U", "NORAD_CAT_ID": 29762, "ELEMENT_SET_NO": 999, "REV_AT_EPOCH": 97994, "BSTAR": 0.00038323873, "MEAN_MOTION_DOT": 1.011e-05, "MEAN_MOTION_DDOT": 0}, "tle": {"line1": "1 29762U 99025BC  25349.95054157  .00001011  00000+0  38324-3 0  9995", "line2": "2 29762  98.5794 332.6600 0203813 326.3114  93.5701 14.22589829979940"}}, "geometry": {"type": "Point", "coordinates": [155.5371385655043, 13.232160998105748]}}, {"type": "Feature", "properties": {"norad_id": 29763, "name": "FENGYUN 1C DEB", "group": "fengyun-1c-debris", "lat": 2.635227350963112, "lon": 150.50959195462596, "alt_km": 777.6749720603921, "timestamp": "2025-12-16T19:34:24.538338+00:00", "meta": {"OBJECT_NAME": "FENGYUN 1C DEB", "OBJECT_ID": "1999-025BD", "EPOCH": "2025-12-15T22:31:53.420736", "MEAN_MOTION": 14.07879287, "ECCENTRICITY": 0.01275577, "INCLINATION": 98.7612, "RA_OF_ASC_NODE": 329.252, "ARG_OF_PERICENTER": 171.4827, "MEAN_ANOMALY": 244.3143, "EPHEMERIS_TYPE": 0, "CLASSIFICATION_TYPE": "U", "NORAD_CAT_ID": 29763, "ELEMENT_SET_NO": 999, "REV_AT_EPOCH": 97095, "BSTAR": 0.00013678846, "MEAN_MOTION_DOT": 2.08e-06, "MEAN_MOTION_DDOT": 0}, "tle": {"line1": "1 29763U 99025BD  25349.93881274  .00000208  00000+0  13679-3 0  9995", "line2": "2 29763  98.7612 329.2520 0127557 171.4827 244.3143 14.07879287970956"}}, "geometry": {"type": "Point", "coordinates": [150.50959195462596, 2.635227350963112]}}, {"type": "Feature", "properties": {"norad_id": 29765, "name": "FENGYUN 1C DEB", "group": "fengyun-1c-debris", "lat": -24.376000747423433, "lon": 12.912319877612715, "alt_km": 903.4897887425541, "timestamp": "2025-12-16T19:34:24.538353+00:00", "meta": {"OBJECT_NAME": "FENGYUN 1C DEB", "OBJECT_ID": "1999-025BF", "EPOCH": "2025-12-15T13:35:01.516128", "MEAN_MOTION": 14.02153293, "ECCENTRICITY": 0.00599886, "INCLINATION": 98.8302, "RA_OF_ASC_NODE": 7.663, "ARG_OF_PERICENTER": 84.7803, "MEAN_ANOMALY": 67.2569, "EPHEMERIS_TYPE": 0, "CLASSIFICATION_TYPE": "U", "NORAD_CAT_ID": 29765, "ELEMENT_SET_NO": 999, "REV_AT_EPOCH": 96790, "BSTAR": -4.386624e-06, "MEAN_MOTION_DOT": -4.9e-07, "MEAN_MOTION_DDOT": 0}, "tle": {"line1": "1 29765U 99025BF  25349.56598977 -.00000049  00000+0 -43866-5 0  9999", "line2": "2 29765  98.8302   7.6630 0059988  84.7803  67.2569 14.02153293967908"}}, "geometry": {"type": "Point", "coordinates": [12.912319877612715, -24.376000747423433]}}, {"type": "Feature", "properties": {"norad_id": 29766, "name": "FENGYUN 1C DEB", "group": "fengyun-1c-debris", "lat": 51.117188031896625, "lon": -70.70360936785498, "alt_km": 973.6135401928559, "timestamp": "2025-12-16T19:34:24.538364+00:00", "meta": {"OBJECT_NAME": "FENGYUN 1C DEB", "OBJECT_ID": "1999-025BG", "EPOCH": "2025-12-15T14:58:00.278112", "MEAN_MOTION": 13.97064445, "ECCENTRICITY": 0.01459054, "INCLINATION": 98.6854, "RA_OF_ASC_NODE": 299.0965, "ARG_OF_PERICENTER": 280.2768, "MEAN_ANOMALY": 259.0297, "EPHEMERIS_TYPE": 0, "CLASSIFICATION_TYPE": "U", "NORAD_CAT_ID": 29766, "ELEMENT_SET_NO": 999, "REV_AT_EPOCH": 95844, "BSTAR": 0.0011786058, "MEAN_MOTION_DOT": 1.758e-05, "MEAN_MOTION_DDOT": 0}, "tle": {"line1": "1 29766U 99025BG  25349.62361433  .00001758  00000+0  11786-2 0  9991", "line2": "2 29766  98.6854 299.0965 0145905 280.2768 259.0297 13.97064445958446"}}, "geometry": {"type": "Point", "coordinates": [-70.70360936785498, 51.117188031896625]}}, {"type": "Feature", "properties": {"norad_id": 29767, "name": "FENGYUN 1C DEB", "group": "fengyun-1c-debris", "lat": 32.17429638072957, "lon": -46.08513000354865, "alt_km": 648.1090628641032, "timestamp": "2025-12-16T19:34:24.538374+00:00", "meta": {"OBJECT_NAME": "FENGYUN 1C DEB", "OBJECT_ID": "1999-025BH", "EPOCH": "2025-12-15T21:25:43.805568", "MEAN_MOTION": 14.0337494, "ECCENTRICITY": 0.0333294, "INCLINATION": 98.1978, "RA_OF_ASC_NODE": 318.2844, "ARG_OF_PERICENTER": 52.3111, "MEAN_ANOMALY": 2.4552, "EPHEMERIS_TYPE": 0, "CLASSIFICATION_TYPE": "U", "NORAD_CAT_ID": 29767, "ELEMENT_SET_NO": 999, "REV_AT_EPOCH": 95644, "BSTAR": 0.0015517909, "MEAN_MOTION_DOT": 3.936e-05, "MEAN_MOTION_DDOT": 0}, "tle": {"line1": "1 29767U 99025BH  25349.89286812  .00003936  00000+0  15518-2 0  9995", "line2": "2 29767  98.1978 318.2844 0333294  52.3111   2.4552 14.03374940956443"}}, "geometry": {"type": "Point", "coordinates": [-46.08513000354865, 32.17429638072957]}}]}